SCS-01 D                
1 63985U 25100D   26068.75607686  .00032471  00000+0  10528-2 0  9990
2 63985  97.3730 145.4097 0006346 266.2302  93.8214 15.31902149 45621
STARLINK-35718          
1 66894U 25283S   26068.15011130  .00039207  00000+0  13287-2 0  9990
2 66894  53.1623  26.5203 0001386  41.6262 318.4844 15.30205121 15763
